Search.setIndex({docnames:["api/cysgp4.PyCoordGeodetic","api/cysgp4.PyCoordTopocentric","api/cysgp4.PyDateTime","api/cysgp4.PyEci","api/cysgp4.PyObserver","api/cysgp4.PyTle","api/cysgp4.Satellite","api/cysgp4.get_example_tles","api/cysgp4.propagate_many","api/cysgp4.propagate_many_sgp4","api/cysgp4.propagate_many_slow","api/cysgp4.satellite_mean_motion","api/cysgp4.set_num_threads","api/cysgp4.test","api/cysgp4.tle_checksum","api/cysgp4.tle_linestrings_from_orbital_parameters","api/cysgp4.tle_tuples_from_text","api/cysgp4.tles_from_text","importing_cysgp4","index","install","license","quick_tour","user_manual"],envversion:{"sphinx.domains.c":1,"sphinx.domains.changeset":1,"sphinx.domains.citation":1,"sphinx.domains.cpp":1,"sphinx.domains.index":1,"sphinx.domains.javascript":1,"sphinx.domains.math":2,"sphinx.domains.python":1,"sphinx.domains.rst":1,"sphinx.domains.std":1,"sphinx.ext.intersphinx":1,"sphinx.ext.todo":2,"sphinx.ext.viewcode":1,sphinx:56},filenames:["api/cysgp4.PyCoordGeodetic.rst","api/cysgp4.PyCoordTopocentric.rst","api/cysgp4.PyDateTime.rst","api/cysgp4.PyEci.rst","api/cysgp4.PyObserver.rst","api/cysgp4.PyTle.rst","api/cysgp4.Satellite.rst","api/cysgp4.get_example_tles.rst","api/cysgp4.propagate_many.rst","api/cysgp4.propagate_many_sgp4.rst","api/cysgp4.propagate_many_slow.rst","api/cysgp4.satellite_mean_motion.rst","api/cysgp4.set_num_threads.rst","api/cysgp4.test.rst","api/cysgp4.tle_checksum.rst","api/cysgp4.tle_linestrings_from_orbital_parameters.rst","api/cysgp4.tle_tuples_from_text.rst","api/cysgp4.tles_from_text.rst","importing_cysgp4.rst","index.rst","install.rst","license.rst","quick_tour.rst","user_manual.rst"],objects:{"cysgp4.PyCoordGeodetic":{alt:[0,1,1,""],ecef:[0,1,1,""],lat:[0,1,1,""],lon:[0,1,1,""]},"cysgp4.PyCoordTopocentric":{az:[1,1,1,""],dist:[1,1,1,""],dist_rate:[1,1,1,""],el:[1,1,1,""]},"cysgp4.PyDateTime":{datetime:[2,1,1,""],from_mjd:[2,2,1,""],from_ticks:[2,2,1,""],from_tle_epoch:[2,2,1,""],get_datetime_tuple:[2,2,1,""],gmst:[2,2,1,""],lmst:[2,2,1,""],mjd:[2,1,1,""],set:[2,2,1,""],ticks:[2,1,1,""],tle_epoch:[2,1,1,""]},"cysgp4.PyEci":{geo_loc:[3,1,1,""],loc:[3,1,1,""],pydt:[3,1,1,""],update:[3,2,1,""],vel:[3,1,1,""]},"cysgp4.PyObserver":{loc:[4,1,1,""]},"cysgp4.PyTle":{arg_perigee:[5,1,1,""],bstar:[5,1,1,""],catalog_number:[5,1,1,""],eccentricity:[5,1,1,""],epoch:[5,1,1,""],inclination:[5,1,1,""],int_designator:[5,1,1,""],mean_anomaly:[5,1,1,""],mean_motion:[5,1,1,""],mean_motion_dt2:[5,1,1,""],mean_motion_dt6:[5,1,1,""],raan:[5,1,1,""],rev_number:[5,1,1,""],tle_strings:[5,2,1,""]},"cysgp4.Satellite":{eci_pos:[6,2,1,""],geo_pos:[6,2,1,""],mjd:[6,1,1,""],pydt:[6,1,1,""],topo_pos:[6,2,1,""]},cysgp4:{PyCoordGeodetic:[0,0,1,""],PyCoordTopocentric:[1,0,1,""],PyDateTime:[2,0,1,""],PyEci:[3,0,1,""],PyObserver:[4,0,1,""],PyTle:[5,0,1,""],Satellite:[6,0,1,""],get_example_tles:[7,3,1,""],propagate_many:[8,3,1,""],propagate_many_sgp4:[9,3,1,""],propagate_many_slow:[10,3,1,""],satellite_mean_motion:[11,3,1,""],set_num_threads:[12,3,1,""],test:[13,3,1,""],tle_checksum:[14,3,1,""],tle_linestrings_from_orbital_parameters:[15,3,1,""],tle_tuples_from_text:[16,3,1,""],tles_from_text:[17,3,1,""]}},objnames:{"0":["py","class","Python class"],"1":["py","attribute","Python attribute"],"2":["py","method","Python method"],"3":["py","function","Python function"]},objtypes:{"0":"py:class","1":"py:attribute","2":"py:method","3":"py:function"},terms:{"00001u":15,"0000km":[1,23],"0173km":[22,23],"0186km":6,"0300km":[1,23],"1000d":[1,23],"18015c":[7,16,23],"19822u":[7,16,23],"1st":23,"20001a":15,"20580u":[5,6,7,16,22,23],"2146d":[6,22,23],"2453d":[6,22,23],"25544u":14,"2749d":[6,22,23],"2nd":23,"3660km":[0,3,4,23],"3rd":23,"43194u":[7,16,23],"4885km":[6,22,23],"5087km":[6,22,23],"5250d":[0,3,4,23],"5300d":[1,23],"5509d":[6,22,23],"5681km":[22,23],"5683km":6,"6844d":6,"6845d":[22,23],"8446d":[6,22,23],"8837d":[3,23],"8838d":[0,4,23],"89016a":[7,16,23],"90037b":[5,6,7,16,22,23],"9195km":6,"9196km":[22,23],"98067a":14,"boolean":[2,8],"case":[5,8,15,20,22,23],"class":[0,1,2,3,4,5,6,8,18],"default":[0,1,2,4,6,8,11,13],"export":20,"float":[0,1,2,4,8,11,15],"function":[8,15,18,19,20,22],"import":[0,1,2,3,4,5,6,7,8,11,14,15,16,17,19,20,22,23],"int":[2,5,12,13,14,23],"new":[2,3,6,20,23],"return":[0,1,2,3,4,5,6,7,8,11,14,15,16,17,22,23],"throw":[6,8],"true":[2,8,9,10,13,14,22,23],"try":[20,23],And:23,For:[2,6,8,22,23],One:[2,3,22,23],The:[0,1,3,4,6,7,8,13,15,19,20,21,22,23],Then:[18,20],There:[2,20,23],Use:[7,20],Used:20,Using:[18,22],With:[8,23],abl:23,about:20,abov:[11,20,23],absolut:13,accept:13,access:[0,1,2,3,4,18,20,23],across:8,actual:20,add:[13,23],added:23,addit:13,administr:20,affili:21,again:[20,23],aka:[1,2,8,23],akebono:[7,16,17,23],align:8,all:[8,13,23],all_lin:[5,23],allow:[8,22,23],almost:9,along:[8,23],alreadi:20,also:[0,1,2,3,4,6,8,12,20,22],alt:[0,8,22,23],alt_km:[0,3,4,6,11,15,22,23],altern:8,although:[5,23],altitud:[0,3,4,11,15,23],alwai:[1,4,6,8,20,23],amount:[6,23],analysi:13,angl:8,ani:[13,20],anomali:[5,15,23],anoth:[6,22,23],apach:21,appar:[6,23],appli:[8,22,23],applic:23,approach:[20,22],approxim:8,arg:13,arg_perige:5,argument:[5,13,15,23],argument_of_perige:15,argument_of_perigee_deg:15,around:[0,1,2,3,4,5,23],arrai:[8,19,22,23],ascend:[5,15,23],ascens:[5,15],assum:[14,15],astronomi:2,astropi:[13,19,20,21],atmospher:23,attach:[4,23],attribut:[0,1,2,3,4,5,6],auto:13,avail:[20,23],avoid:20,awar:20,axes:[8,23],axi:[8,23],az_deg:[1,23],azimuth:[1,2,8,23],ball:20,base:[0,1,2,3,4,5,6,9,21,23],basic:[20,23],batch:[6,8],becaus:[4,13,20,23],begin:[2,15,23],below:[20,23],benchmark:[9,10],best:23,better:20,between:[1,2,23],bin:20,binari:20,bit:20,bodi:23,bool:[8,13],boost:[19,23],box:20,brandon:[9,19,23],brew:20,broadcast:[8,22,23],bsd:21,bstar:[5,23],build:[13,20],built:[20,22],bulk:23,bwinkel:20,cach:[6,23],calcul:[2,6,8,19,22],call:[6,13,23],can:[2,3,5,6,8,11,12,13,16,17,18,19,20,22,23],cartesian:[3,6,8,22,23],catalog:5,catalog_numb:5,caus:23,celestrak:[2,5,7,22,23],center:[0,8],certain:[6,23],certainli:20,chang:[1,6,8,12,20,22,23],check:[13,14],checksum:14,chksum:14,choic:[4,20],choos:23,chosen:8,clang_osx:20,clangxx_osx:20,classmethod:2,claus:21,clone:20,cls:2,code:[19,20,21,23],coerce_to_nan:[6,8],com:[5,20,22,23],combin:23,comma:13,command:20,commun:19,compar:23,comparison:23,compat:23,compil:20,complic:23,comput:[5,14,19,20,21,23],computation:2,conda:20,conjuct:[1,23],consid:20,consist:[15,16,22],construct:[0,1,2,3,4,6,8,23],constructor:[3,4,23],contain:[1,5,7,16,17,22,23],content:7,contrast:[19,23],control:[12,13],conveni:[2,13,23],convers:23,convert:[2,6,8,15,22,23],coordgeodet:0,coordin:[1,3,22,23],coordtopocentr:1,core:[8,13,19,23],correct:14,correspond:[2,5,23],could:20,cours:23,cpp:20,cppflag:20,cpu:[8,13,23],creat:[2,20,22,23],cse:[7,16,17,23],ctrak_scienc:[5,22,23],current:[2,6,20],cxx11:20,cxx:20,cysgp4:[0,1,2,3,4,5,6,7,8,9,10,11,12,13,14,15,16,17,21],cython:[19,21,23],dai:[2,5,11,15,23],daili:23,daniel:[19,21,23],data:13,date:[2,3,5,6,8,15,20,22,23],datetim:[1,2,3,4,6,15,23],ddt6:[5,23],decid:8,decim:15,def:23,defin:[1,5,6,8,15,22,23],definit:[8,11,23],deg:[0,1,4,5,6,8,15],degre:[2,23],demonstr:[6,8,23],dep:20,depend:20,deriv:[2,5],describ:[5,23],descript:[8,15],design:[4,5,23],desir:[2,6,8,20,23],desper:20,determin:[8,22],develop:20,deviat:[6,8],diagnos:13,dict:8,dict_kei:22,dictionari:[8,22,23],differ:[6,8,20,22,23],digit:[2,5,14,15,23],dimens:[8,22],dimensionless:15,dimless:5,directli:23,directori:[13,20],disabl:13,discuss:23,dist:[1,8,22,23],dist_km:[1,23],dist_rat:[1,8,22],dist_rate_km:[1,23],dist_rate_km_per_:1,distanc:[1,8,23],distribut:20,divid:5,do_eci_po:[8,9,10,22,23],do_eci_vel:[8,9,10,22,23],do_geo:[8,9,10,22,23],do_obs_po:8,do_sat_azel:8,do_topo:[8,9,10,22,23],docs_path:13,doctest:13,document:[0,1,2,3,4,5,6,13,20],doe:[20,23],done:[2,23],doubl:[0,1,2,4,6,8,11],download:[7,22,23],drag:[5,23],dt2:[5,23],each:[8,13,15,16,22,23],earth:[0,5,8,11,23],easi:20,easier:8,easiest:20,eccentr:[5,15,23],ecef:0,eci:[3,4,6,8,22,23],eci_po:[6,8,22,23],eci_vel:[8,22,23],edit:[7,9,10,13],either:[6,8,20],el_deg:[1,23],element:[5,15,19,21,22,23],elev:[1,2,8,23],ellipsoid:23,encapsul:23,entri:[7,16,17,23],environ:[8,12,20],epoch:[2,5,6,8,15,23],error:[6,8,20],errorbar:5,especi:[5,20,23],etc:23,even:20,everyth:8,exact:23,exactli:23,exampl:[0,1,2,3,4,5,6,7,8,11,14,15,16,17,22,23],excel:19,except:9,exist:23,exo:[7,16,17,23],extra:13,extract:20,fail:13,failur:[13,20],fals:[8,22,23],famou:23,fast:[22,23],faster:[8,23],feed:23,few:23,field:[11,23],file:[7,11,13,16,17,20,22,23],first:[2,5,8,15,22,23],fit:[11,13],fix:[0,4,23],flag:20,follow:[2,6,8,15,20,22,23],forg:20,form:[3,23],format:[2,15,23],former:22,formula:11,fraction:[2,15,23],frame:[0,2,8,22,23],free:23,from:[0,1,2,3,4,5,6,7,8,13,15,19,21,22,23],from_mjd:[2,3,6,22,23],from_tick:[2,23],from_tle_epoch:2,fulli:[20,22],function_nam:18,further:8,furthermor:[6,23],gain:23,gbyte:20,gener:15,geo:[0,3,6,8,22,23],geo_loc:3,geo_po:[6,22,23],geodet:[6,8,22,23],geograph:[0,1,2,3,4,6,8,22,23],geoid:23,get:[5,20,22,23],get_datetime_tupl:2,get_example_tl:[8,16,17,22,23],git:20,github:[7,9,10,13,20],given:[2,6,8,15,23],global:23,gmst:[2,23],goe:23,good:15,gpl:21,granular:[6,23],gravit:[11,23],great:20,greenwhich:2,hand:23,handl:9,happen:[6,8,20],has:[4,8,9,10,15,20,23],have:[2,5,20,23],heavi:2,help:20,helper:23,here:[20,23],higher:23,hold:[0,1,3,4,23],home:20,horizont:[2,23],hour:[2,15,23],how:[6,8,13,20,23],howev:[1,4,20,22,23],hst:[5,6,7,16,17,22,23],hst_tle:[5,6,22,23],http:[5,11,13,20,22,23],idx:[5,23],ignor:2,implement:[8,23],inclin:[5,15,23],inclination_deg:15,includ:[8,11,16,17,20,23],incompat:20,index:20,influenc:23,info:13,inform:[1,5,23],init:2,input:[8,23],instal:19,instanc:[2,6,8],instead:[6,8,20],instruct:20,int64_t:2,int_design:5,interest:[6,8,23],interfac:[4,8,9,10,22],intern:[2,3,4,5,6,19,23],interplai:23,iso:8,issu:20,its:23,itself:21,januari:[2,23],julian:[2,6,8,23],jupyt:[19,22],just:23,kei:[8,22,23],keplarian:[15,23],keyword:13,known:[19,23],kwarg:13,larg:[5,8,20,22],larger:6,last:[5,6,8,22,23],lat:[0,8,22],lat_deg:[0,3,4,6,22,23],later:[6,20,22,23],latest:23,latitud:[0,3,4,23],latter:20,launch:5,lazi:[6,23],lazili:6,ldflag:20,lead:20,least:[5,23],leav:13,len:[5,23],length:[8,23],less:[6,23],let:23,level:23,lgomp:20,lib:20,libc:20,librari:[6,8,19,21],like:[6,7,11,15,16,17,20,22,23],line:[5,7,14,15,16,17,19,20,21,22,23],line_on:5,line_two:5,linear:2,link:20,linspac:[8,22,23],linux:20,list:[5,8,13,16,17,22,23],lmst:[2,23],loc:[3,4,6,22,23],local:[2,20],locat:[0,1,3,4,6,8,13,22,23],lon:[0,8,22,23],lon_deg:[0,3,4,6,22,23],longitud:[0,2,3,4,23],look:[6,23],loop:[9,10,23],lot:[19,23],low:[5,23],machin:[13,20],mai:[13,20],main:13,make:[8,19,20,23],mandatori:20,mani:[5,8,13,22,23],manner:[8,22],manual:[2,19],mark:13,mass:11,maximum:12,mean:[2,5,8,11,15,20,23],mean_anomali:[5,15],mean_anomaly_deg:15,mean_mot:[5,11,15],mean_motion_dt2:5,mean_motion_dt6:5,mean_motion_per_dai:15,meant:[9,10],mention:[2,23],mere:23,mess:20,messag:20,method:[2,3,5,6,13,23],micro:[2,23],microsecond:2,min:23,minim:22,minut:[2,6,22,23],mjd:[2,6,8,9,10,15,22,23],mjd_cache_resolut:[6,23],mjd_epoch:15,mjd_resolut:6,model:23,modifi:[2,6,8,23],moment:22,month:2,more:[6,20,23],mortem:13,most:[8,23],motion:[5,8,11,15,23],move:8,mu_km3_s2:11,much:20,multi:[19,23],multipl:13,must:[2,8,13,20],mysat:15,nadir:8,name:[5,13,15,16,17,23],nan:[6,8],nasa:23,nbsp:[7,9,10,13],ndarrai:8,necessari:[5,20],need:[2,6,20,22,23],newaxi:[8,22,23],newli:[6,23],next:[2,5,15,23],nhst:[7,23],node:[5,15,23],nomin:11,non:[9,10],none:[2,3,6,8,9,10,13],norad:[5,22,23],normal:13,note:[1,2,3,4,5,9,11,12,15,20,23],notebook:[19,22],noth:13,nov:7,now:[6,23],nthread:12,num_cor:23,numba:[19,23],number:[2,5,8,12,13,15,22,23],numpi:[8,20,22,23],object:[0,1,2,3,4,5,6,8,17,22,23],obs:[4,6,22,23],obs_po:8,observ:[1,2,4,6,8,9,10,22,23],observer_longitud:[2,23],obslon_deg:2,obtain:[5,20,23],odd:4,off:13,often:[2,5,6,8,20,23],omp_num_thread:[8,12],on_error:[6,8,9,10],onboard:23,onc:[5,8,23],one:[2,5,6,8,18,22,23],ones:13,onli:[1,2,3,5,6,8,9,10,13,15,20,23],open:[13,21],open_fil:13,openmp:[8,19,20,23],opt:20,option:[6,8,11,13,20],orbit:[5,15,22,23],org:[11,13],orient:22,orthogon:8,other:[5,20,23],otherwis:20,out:[20,23],outdat:[5,23],outer:23,output:[8,13,23],over:[22,23],overwrit:20,owing:23,own:20,pack:8,packag:[9,13,19,20,21],pair:22,parallel:[8,9,10,13,22,23],paramet:[0,1,2,3,4,5,6,8,11,12,13,14,15,16,17,23],pars:[5,11,16,17,23],parti:20,particular:[3,23],partli:21,pass:[4,13],pastebin:13,path:13,pdb:13,pep8:13,per:[5,11,16,17,23],perform:[6,8,22,23],perige:[5,15,23],permissionerror:20,perpendicular:8,pertub:23,perturb:23,phi:8,physic:23,piec:5,plane:8,platform:[19,23],pleas:20,plu:23,plugin:13,point:[2,8,20,23],posit:[1,2,6,8,19,21,22,23],possibl:[0,1,2,3,4,20,22,23],post:13,power:[19,21,23],practic:[5,23],prefer:20,prepare_arrai:23,previou:6,print:[2,5,8,20,22,23],probabl:[2,8,22,23],problem:20,process:[6,8,19,23],produc:23,product:23,propagate_mani:[9,10,22,23],propagate_many_sgp4:23,propagate_many_slow:23,properti:[0,1,2,3,4,22,23],provid:[13,18,19,20,23],psutil:13,publish:[21,23],purpos:[7,23],pyarg:20,pycoordgeodet:[3,4,6,22],pycoordtopocentr:[6,8,22],pydatetim:[3,5,6,15,22],pydt:[2,3,6,15,22,23],pyeci:[4,6,8],pyobserv:[1,6,8,22],pypi:20,pytest:[13,20],python:[2,6,8,9,10,18,19,20,23],pytl:[6,8,17,22],queri:[2,5,6,8,22,23],quick:19,quickli:[5,23],r_earth_km:11,raan:[5,15],raan_deg:15,radiu:11,rais:[6,8,10],rang:[1,5,23],rate:[1,23],reach:23,read:[3,20,23],readonli:3,realli:[15,23],reason:23,recommend:20,refer:1,rel:[1,13,23],relat:[20,23],remot:13,remote_data:13,repeat:[13,23],replac:20,report:20,repositori:20,request:[5,6,8,22,23],requir:13,resolut:[6,23],respect:8,result:[6,8,22,23],rev_numb:5,revolut:[5,11],rhode:[9,19,23],right:[5,15,23],risk:20,rotat:23,routin:[5,23],rpath:20,rst:13,rule:[8,22,23],run:[13,20,23],run_tim:23,runtimeerror:[6,8],same:[8,9,10,13,23],sat:[6,22,23],sat_azel:8,sat_fram:8,sat_nam:15,sat_nr:15,satellit:[1,2,5,8,11,15,19,21,22],satellite_mean_mot:15,scalar:8,scale:2,scienc:[5,7,22,23],second:[2,5,23],section:23,see:[0,1,2,3,4,5,6,8,11,15,20],seen:8,self:[2,3,5,6],sep:[5,23],separ:13,set:[2,3,4,5,6,8,12,13,20,23],set_num_thread:[8,23],setuptool:20,sever:[2,23],sgp4:[0,1,2,3,4,5,8,9,19,22],sgp4lib:[19,21],sgp:[6,8],shape:[8,22,23],should:[5,13,20,23],sider:2,signific:23,similar:[19,23],simpl:[15,18],simpler:20,simpli:20,simplifi:23,sinc:[2,20,23],singl:[8,13],six:[5,23],skip:[13,22,23],skip_doc:13,slow:[10,23],solar:23,sole:23,some:[20,23],sometim:20,soon:20,sort:[8,22,23],sourc:[5,7,9,10,13,21,23],specif:[13,23],specifi:[13,23],speed:[19,23],split:[5,16,23],sporad:13,stai:20,standard:20,start:23,stdlib:20,step:[8,22,23],still:23,store:[2,3,5,15,23],str:[5,6,7,8,13,14,15,16,17],straightforward:[0,1,3,4,23],strang:[2,15,23],strict:20,string:[5,7,11,13,14,15,16,17,22,23],strongli:[6,8],struct:[0,1],structur:23,succe:20,sudo:20,suggest:[5,23],suit:[13,20],suitabl:20,summari:[0,1,2,3,4,5,6],support:20,suppress:[6,8],surfac:[11,23],system:[4,20,23],tar:20,task:2,templat:[19,21],term:5,test:[7,9,10,23],test_path:13,text:[5,7,11,16,17,22,23],than:[6,23],thei:[11,23],them:[8,15,22,23],theta:8,thi:[1,2,4,6,7,8,9,10,11,12,13,15,16,17,19,20,22,23],thin:[0,1,2,3,4,5,23],thing:[20,23],think:23,third:[20,23],thread:12,three:[2,5,15,16,17,22,23],thrown:[6,8],thu:[1,23],tick:[2,23],ticket:20,time:[2,3,4,5,6,8,13,15,19,22,23],timeit:23,timer:23,timescal:2,timestamp:6,timezon:[2,23],tle:[2,5,6,7,8,9,10,11,14,15,16,17,19,21,22,23],tle_epoch:2,tle_lin:[14,15],tle_list:[5,16,17,22,23],tle_str:5,tle_text:[7,8,16,17,23],tle_tupl:[15,16,17],tle_tuples_from_text:[7,22,23],tles_from_text:[8,23],tool:[20,23],topo:[1,6,8,22,23],topo_po:[6,22,23],topocentr:[1,6,8,22,23],tour:19,toward:[8,20],tox:20,track:8,tracker:20,tricki:20,trigger:[6,23],troubl:20,tupl:[5,15,16,22,23],turn:[13,23],tutori:[19,22],two:[2,5,8,15,19,20,21,22,23],txt:[5,7,22,23],type:2,typic:[6,23],under:21,underli:[6,8,23],unicod:[6,8,16,17],unless:20,updat:[3,20,23],upgrad:20,upload:13,url:[5,22,23],use:[2,5,6,8,12,13,15,19,20,22,23],used:[2,5,6,8,15,23],useful:[1,2,13,22,23],user:[8,20],uses:[19,23],using:[0,1,2,3,4,20,23],usr:20,usual:[4,6,8,23],utc:[2,3,5,15,23],utcnow:[2,6],util:[8,13,20,23],v_x:8,v_y:8,v_z:8,valid:15,valu:[6,8],vari:23,variabl:[2,8,12,20],variant:9,variou:[8,23],vector:[6,8],vel:[3,6,22,23],velic:8,veloc:[3,6,8,22,23],verbos:13,veri:[2,15,23],version:[10,20,23],via:[0,1,2,3,4,6,8,13,18,19,20,22,23],virtualenv:20,visual:20,wai:20,want:[14,20,22],warner:[19,21,23],websit:22,well:[19,23],wgs72:[11,23],wgs84:23,what:15,wheel:20,when:13,whether:[8,13],which:[1,2,5,6,7,8,19,20,21,22,23],wide:20,wiki:11,wikipedia:[2,5,11,15],work:[6,8,19,20,22,23],would:[2,6,15,23],wrap:23,wrapper:[0,1,2,3,4,5,19,21],write:20,xdist:13,xyz:8,year:[2,5,15,23],you:[14,20,23],your:[20,23],zero:[2,4,8,23],zhangzheng:[7,16,17,23],zip:[5,23],zxy:8},titles:["PyCoordGeodetic","PyCoordTopocentric","PyDateTime","PyEci","PyObserver","PyTle","Satellite","get_example_tles","propagate_many","propagate_many_sgp4","propagate_many_slow","satellite_mean_motion","set_num_threads","test","tle_checksum","tle_linestrings_from_orbital_parameters","tle_tuples_from_text","tles_from_text","Importing cysgp4","cysgp4 Documentation","Installation","Licenses","Cysgp4 quick tour","Cysgp4 user manual"],titleterms:{"class":23,"function":23,"import":18,Using:[20,23],acknowledg:19,also:23,anaconda:20,api:23,batch:23,benchmark:23,calcul:23,clang:20,cysgp4:[18,19,20,22,23],document:19,from:20,gcc:20,get:19,get_example_tl:7,instal:20,interfac:23,introduct:23,librari:23,licens:[19,21],llvm:20,maco:20,manual:23,option:23,packag:23,pip:20,propagate_mani:8,propagate_many_sgp4:9,propagate_many_slow:10,pycoordgeodet:[0,23],pycoordtopocentr:[1,23],pydatetim:[2,23],pyeci:[3,23],pyobserv:[4,23],pytl:[5,23],quick:22,refer:23,requir:20,satellit:[6,23],satellite_mean_mot:11,see:23,set_num_thread:12,sgp4:23,sourc:20,start:19,test:[13,20],tle_checksum:14,tle_linestrings_from_orbital_paramet:15,tle_tuples_from_text:16,tles_from_text:17,tour:22,user:[19,23],window:20,wrapper:23}})